{
    "links": {
        "self": "http://www.neowsapp.com/rest/v1/neo/3687132?api_key=iIulBulltgU6a56xZRHN4H3l9WmuAYTsLGpBGhQ2"
    },
    "id": "3687132",
    "neo_reference_id": "3687132",
    "name": "(2014 QJ439)",
    "designation": "2014 QJ439",
    "nasa_jpl_url": "http://ssd.jpl.nasa.gov/sbdb.cgi?sstr=3687132",
    "absolute_magnitude_h": 21.8,
    "estimated_diameter": {
        "kilometers": {
            "estimated_diameter_min": 0.1160259082,
            "estimated_diameter_max": 0.2594418179
        },
        "meters": {
            "estimated_diameter_min": 116.0259082094,
            "estimated_diameter_max": 259.4418179074
        },
        "miles": {
            "estimated_diameter_min": 0.0720951346,
            "estimated_diameter_max": 0.1612096218
        },
        "feet": {
            "estimated_diameter_min": 380.6624406898,
            "estimated_diameter_max": 851.1870938635
        }
    },
    "is_potentially_hazardous_asteroid": false,
    "close_approach_data": [
        {
            "close_approach_date": "2014-09-24",
            "close_approach_date_full": "2014-Sep-24 09:51",
            "epoch_date_close_approach": 1411552260000,
            "relative_velocity": {
                "kilometers_per_second": "3.8158034877",
                "kilometers_per_hour": "13736.8925557495",
                "miles_per_hour": "8535.5708216545"
            },
            "miss_distance": {
                "astronomical": "0.2731317375",
                "lunar": "106.2482458875",
                "kilometers": "40859926.159399125",
                "miles": "25389180.803492925"
            },
            "orbiting_body": "Earth"
        },
        {
            "close_approach_date": "2017-01-23",
            "close_approach_date_full": "2017-Jan-23 21:52",
            "epoch_date_close_approach": 1485208320000,
            "relative_velocity": {
                "kilometers_per_second": "3.2730580593",
                "kilometers_per_hour": "11783.0090133089",
                "miles_per_hour": "7321.5035727419"
            },
            "miss_distance": {
                "astronomical": "1.3179983513",
                "lunar": "512.7013586557",
                "kilometers": "197169746.017991731",
                "miles": "122515599.0517626478"
            },
            "orbiting_body": "Juptr"
        },
        {
            "close_approach_date": "2093-09-28",
            "close_approach_date_full": "2093-Sep-28 20:04",
            "epoch_date_close_approach": 3905006640000,
            "relative_velocity": {
                "kilometers_per_second": "3.9599956722",
                "kilometers_per_hour": "14255.9844200152",
                "miles_per_hour": "8858.1143192033"
            },
            "miss_distance": {
                "astronomical": "0.2316813077",
                "lunar": "90.1240286953",
                "kilometers": "34659030.150734599",
                "miles": "21536122.6923875062"
            },
            "orbiting_body": "Earth"
        }
    ],
    "orbital_data": {
        "orbit_id": "9",
        "orbit_determination_date": "2017-04-06 08:38:49",
        "first_observation_date": "2014-08-28",
        "last_observation_date": "2014-10-25",
        "data_arc_in_days": 58,
        "observations_used": 26,
        "orbit_uncertainty": "6",
        "minimum_orbit_intersection": ".28084",
        "jupiter_tisserand_invariant": "3.091",
        "epoch_osculation": "2459000.5",
        "eccentricity": ".5431885573573652",
        "semi_major_axis": "2.793917004181091",
        "inclination": "2.998998282702322",
        "ascending_node_longitude": "82.53922976818325",
        "orbital_period": "1705.762954212661",
        "perihelion_distance": "1.276293257303753",
        "perihelion_argument": "283.1656942947366",
        "aphelion_distance": "4.31154075105843",
        "perihelion_time": "2458647.213215127349",
        "mean_anomaly": "74.56091260515089",
        "mean_motion": ".2110492545936239",
        "equinox": "J2000",
        "orbit_class": {
            "orbit_class_type": "AMO",
            "orbit_class_description": "Near-Earth asteroid orbits similar to that of 1221 Amor",
            "orbit_class_range": "1.017 AU < q (perihelion) < 1.3 AU"
        }
    },
    "is_sentry_object": false
}